{"type":"FeatureCollection","features":[{"type":"Feature","id":1,"geometry":{"type":"Point","coordinates":[-91.263894919999984,43.816538710000032]},"properties":{"OBJECTID":1,"NAME":"Pettibone Park","PROGRAM":"Municipal Park","AMENITY":5,"ORIG_FID":1}},{"type":"Feature","id":2,"geometry":{"type":"Point","coordinates":[-91.202480942999955,43.81898684600003]},"properties":{"OBJECTID":2,"NAME":"Lower Hixon Forest","PROGRAM":"Municipal Park","AMENITY":3,"ORIG_FID":2}},{"type":"Feature","id":3,"geometry":{"type":"Point","coordinates":[-91.203631678999955,43.798326152000072]},"properties":{"OBJECTID":3,"NAME":"Shelby Butterfly Trails","PROGRAM":"Municipal Park","AMENITY":3,"ORIG_FID":4}},{"type":"Feature","id":4,"geometry":{"type":"Point","coordinates":[-91.222260776999974,43.733573660000047]},"properties":{"OBJECTID":4,"NAME":"Goose Island Park","PROGRAM":"County Park","AMENITY":5,"ORIG_FID":5}},{"type":"Feature","id":5,"geometry":{"type":"Point","coordinates":[-91.188915388999987,43.823507515000074]},"properties":{"OBJECTID":5,"NAME":"Upper Hixon Forest","PROGRAM":"Municipal Park","AMENITY":3,"ORIG_FID":6}},{"type":"Feature","id":6,"geometry":{"type":"Point","coordinates":[-91.205411077999941,43.812432336000029]},"properties":{"OBJECTID":6,"NAME":"Grandad Bluff Park","PROGRAM":"Municipal Park","AMENITY":4,"ORIG_FID":7}},{"type":"Feature","id":7,"geometry":{"type":"Point","coordinates":[-91.399539383999979,43.941699033000077]},"properties":{"OBJECTID":7,"NAME":"Great River Bluffs State Park","PROGRAM":"State Park","AMENITY":5,"ORIG_FID":8}},{"type":"Feature","id":8,"geometry":{"type":"Point","coordinates":[-91.029770410999959,43.850705815000026]},"properties":{"OBJECTID":8,"NAME":"Coulee Experimental Forest","PROGRAM":"State Forest","AMENITY":2,"ORIG_FID":9}},{"type":"Feature","id":9,"geometry":{"type":"Point","coordinates":[-91.469082727999989,44.019689045000064]},"properties":{"OBJECTID":9,"NAME":"Perrot State Park","PROGRAM":"State Park","AMENITY":5,"ORIG_FID":10}},{"type":"Feature","id":10,"geometry":{"type":"Point","coordinates":[-91.277137190999952,43.610391094000079]},"properties":{"OBJECTID":10,"NAME":"Reno Recreation Area","PROGRAM":"State Forest","AMENITY":2,"ORIG_FID":11}}]}