{"type":"FeatureCollection","features":[{"type":"Feature","id":1,"geometry":{"type":"Polygon","coordinates":[[[-91.611098986999991,43.500626222000051],[-91.223566799999958,43.500808676000077],[-91.240558006999947,43.54871259600003],[-91.232989902999975,43.59889009300008],[-91.258389215999955,43.677322289000074],[-91.258915907999949,43.722395792000043],[-91.251104894999969,43.788075803000027],[-91.29194797699995,43.84719079100006],[-91.730258016999983,43.845541299000047],[-91.73036618399999,43.499571803000038],[-91.611098986999991,43.500626222000051]]]},"properties":{"OBJECTID":1,"NAME":"Houston County","STATE_NAME":"Minnesota","STATE_FIPS":"27","FIPS":"27055","SQMI":569.27492447129907,"POPULATION":18843,"POP_SQMI":33.100000000000001,"STATE_ABBR":"MN","COUNTY_FIPS":"055","Shape_Length":1.6581737158737595,"Shape_Area":0.16599925247405789}},{"type":"Feature","id":2,"geometry":{"type":"Polygon","coordinates":[[[-92.084018218999972,44.106592784000043],[-92.085593475999985,43.846814901000073],[-91.730258016999983,43.845541299000047],[-91.29194797699995,43.84719079100006],[-91.373357298999963,43.947191081000028],[-91.425901825999972,43.985619888000031],[-91.528420206999954,44.034215288000041],[-91.569162114999983,44.034955309000054],[-91.601786174999972,44.040822220000052],[-91.652233621999983,44.066895711000029],[-91.753219276999971,44.13722772400007],[-91.848743905999982,44.191187278000029],[-92.079679319999968,44.193748004000042],[-92.084018218999972,44.106592784000043]]]},"properties":{"OBJECTID":2,"NAME":"Winona County","STATE_NAME":"Minnesota","STATE_FIPS":"27","FIPS":"27169","SQMI":641.74418604651157,"POPULATION":49671,"POP_SQMI":77.400000000000006,"STATE_ABBR":"MN","COUNTY_FIPS":"169","Shape_Length":2.0426027763261265,"Shape_Area":0.18929689612577405}},{"type":"Feature","id":3,"geometry":{"type":"Polygon","coordinates":[[[-90.911370687999977,43.72565121000008],[-90.914085012999976,44.070890114000065],[-90.973335416999987,44.073891899000046],[-91.148421983999981,44.076389009000025],[-91.181840976999979,44.089183001000038],[-91.225626217999945,44.058543501000031],[-91.264118276999966,44.070799819000058],[-91.302767974999938,44.064353376000042],[-91.335405296999966,44.047504423000078],[-91.346467013999984,44.033226194000065],[-91.330618500999947,43.987881496000057],[-91.425901825999972,43.985619888000031],[-91.373357298999963,43.947191081000028],[-91.29194797699995,43.84719079100006],[-91.251104894999969,43.788075803000027],[-91.258915907999949,43.722395792000043],[-90.911370687999977,43.72565121000008]]]},"properties":{"OBJECTID":3,"NAME":"La Crosse County","STATE_NAME":"Wisconsin","STATE_FIPS":"55","FIPS":"55063","SQMI":480.06359300476947,"POPULATION":120784,"POP_SQMI":251.59999999999999,"STATE_ABBR":"WI","COUNTY_FIPS":"063","Shape_Length":1.6262226641363728,"Shape_Area":0.14069893690537377}},{"type":"Feature","id":4,"geometry":{"type":"Polygon","coordinates":[[[-91.425901825999972,43.985619888000031],[-91.330618500999947,43.987881496000057],[-91.346467013999984,44.033226194000065],[-91.335405296999966,44.047504423000078],[-91.302767974999938,44.064353376000042],[-91.264118276999966,44.070799819000058],[-91.225626217999945,44.058543501000031],[-91.181840976999979,44.089183001000038],[-91.148421983999981,44.076389009000025],[-91.148752286999979,44.247288411000056],[-91.164096021999967,44.248466901000029],[-91.16426381499997,44.593661875000066],[-91.529851914999938,44.594084026000075],[-91.530313073999992,44.246575380000081],[-91.609481975999984,44.207051695000075],[-91.595679877999942,44.193593317000079],[-91.610846494999976,44.168740692000029],[-91.566037709999989,44.141640911000081],[-91.542422889999955,44.097798582000053],[-91.557200613999953,44.08116269900006],[-91.569162114999983,44.034955309000054],[-91.528420206999954,44.034215288000041],[-91.425901825999972,43.985619888000031]]]},"properties":{"OBJECTID":4,"NAME":"Trempealeau County","STATE_NAME":"Wisconsin","STATE_FIPS":"55","FIPS":"55121","SQMI":741.20481927710841,"POPULATION":30760,"POP_SQMI":41.5,"STATE_ABBR":"WI","COUNTY_FIPS":"121","Shape_Length":2.0747486824132464,"Shape_Area":0.21703942895713302}}]}