{"type":"FeatureCollection","features":[{"type":"Feature","id":1,"geometry":{"type":"Point","coordinates":[-91.231945805999942,43.725496728000053]},"properties":{"OBJECTID":1,"Type":"Parking"}},{"type":"Feature","id":2,"geometry":{"type":"Point","coordinates":[-91.231872502999977,43.716053660000057]},"properties":{"OBJECTID":2,"Type":"Parking"}},{"type":"Feature","id":3,"geometry":{"type":"Point","coordinates":[-91.231650694999985,43.726110101000074]},"properties":{"OBJECTID":3,"Type":"Restroom"}},{"type":"Feature","id":4,"geometry":{"type":"Point","coordinates":[-91.231640503999984,43.72867696600008]},"properties":{"OBJECTID":4,"Type":"Restroom"}},{"type":"Feature","id":6,"geometry":{"type":"Point","coordinates":[-91.228486128999975,43.737074492000033]},"properties":{"OBJECTID":6,"Type":"Parking"}},{"type":"Feature","id":7,"geometry":{"type":"Point","coordinates":[-91.225478230999954,43.74548410500006]},"properties":{"OBJECTID":7,"Type":"Parking"}},{"type":"Feature","id":8,"geometry":{"type":"Point","coordinates":[-91.219740557999955,43.745434361000036]},"properties":{"OBJECTID":8,"Type":"Restroom"}},{"type":"Feature","id":9,"geometry":{"type":"Point","coordinates":[-91.220378192999988,43.744975912000029]},"properties":{"OBJECTID":9,"Type":"Parking"}},{"type":"Feature","id":10,"geometry":{"type":"Point","coordinates":[-91.221207840999966,43.734994767000046]},"properties":{"OBJECTID":10,"Type":"Parking"}},{"type":"Feature","id":11,"geometry":{"type":"Point","coordinates":[-91.214209749999952,43.727474373000064]},"properties":{"OBJECTID":11,"Type":"Parking"}},{"type":"Feature","id":12,"geometry":{"type":"Point","coordinates":[-91.204900320999968,43.799031437000053]},"properties":{"OBJECTID":12,"Type":"Parking"}},{"type":"Feature","id":13,"geometry":{"type":"Point","coordinates":[-91.205251369999985,43.811877410000079]},"properties":{"OBJECTID":13,"Type":"Parking"}},{"type":"Feature","id":14,"geometry":{"type":"Point","coordinates":[-91.202707102999966,43.812085798000055]},"properties":{"OBJECTID":14,"Type":"Parking"}},{"type":"Feature","id":15,"geometry":{"type":"Point","coordinates":[-91.20129717399999,43.81305128300005]},"properties":{"OBJECTID":15,"Type":"Parking"}},{"type":"Feature","id":16,"geometry":{"type":"Point","coordinates":[-91.209363225999937,43.812882538000054]},"properties":{"OBJECTID":16,"Type":"Parking"}},{"type":"Feature","id":17,"geometry":{"type":"Point","coordinates":[-91.210386493999977,43.812589380000077]},"properties":{"OBJECTID":17,"Type":"Parking"}},{"type":"Feature","id":18,"geometry":{"type":"Point","coordinates":[-91.210889632999965,43.820433640000033]},"properties":{"OBJECTID":18,"Type":"Parking"}},{"type":"Feature","id":19,"geometry":{"type":"Point","coordinates":[-91.190569513999947,43.823220776000028]},"properties":{"OBJECTID":19,"Type":"Parking"}},{"type":"Feature","id":20,"geometry":{"type":"Point","coordinates":[-91.19904373899999,43.829763589000038]},"properties":{"OBJECTID":20,"Type":"Parking"}},{"type":"Feature","id":21,"geometry":{"type":"Point","coordinates":[-91.280916508999951,43.605999870000062]},"properties":{"OBJECTID":21,"Type":"Parking"}},{"type":"Feature","id":22,"geometry":{"type":"Point","coordinates":[-91.274433109999961,43.617909268000062]},"properties":{"OBJECTID":22,"Type":"Parking"}},{"type":"Feature","id":24,"geometry":{"type":"Point","coordinates":[-91.041135585999939,43.847874912000066]},"properties":{"OBJECTID":24,"Type":"Parking"}},{"type":"Feature","id":25,"geometry":{"type":"Point","coordinates":[-91.407711401999961,43.939079224000068]},"properties":{"OBJECTID":25,"Type":"Parking"}},{"type":"Feature","id":26,"geometry":{"type":"Point","coordinates":[-91.403013021999982,43.94446614900005]},"properties":{"OBJECTID":26,"Type":"Parking"}},{"type":"Feature","id":27,"geometry":{"type":"Point","coordinates":[-91.394724340999971,43.947788174000038]},"properties":{"OBJECTID":27,"Type":"Parking"}},{"type":"Feature","id":28,"geometry":{"type":"Point","coordinates":[-91.394490643999973,43.947981120000065]},"properties":{"OBJECTID":28,"Type":"Restroom"}},{"type":"Feature","id":30,"geometry":{"type":"Point","coordinates":[-91.384248918999958,43.93987076600007]},"properties":{"OBJECTID":30,"Type":"Restroom"}},{"type":"Feature","id":31,"geometry":{"type":"Point","coordinates":[-91.384649245999981,43.939884443000039]},"properties":{"OBJECTID":31,"Type":"Parking"}},{"type":"Feature","id":32,"geometry":{"type":"Point","coordinates":[-91.391153329999952,43.940629122000075]},"properties":{"OBJECTID":32,"Type":"Restroom"}},{"type":"Feature","id":33,"geometry":{"type":"Point","coordinates":[-91.391278201999967,43.940494791000049]},"properties":{"OBJECTID":33,"Type":"Parking"}},{"type":"Feature","id":35,"geometry":{"type":"Point","coordinates":[-91.47297378799999,44.014583945000027]},"properties":{"OBJECTID":35,"Type":"Parking"}},{"type":"Feature","id":36,"geometry":{"type":"Point","coordinates":[-91.475911371999985,44.01602826900006]},"properties":{"OBJECTID":36,"Type":"Parking"}},{"type":"Feature","id":37,"geometry":{"type":"Point","coordinates":[-91.475069466999969,44.016136378000056]},"properties":{"OBJECTID":37,"Type":"Restroom"}},{"type":"Feature","id":38,"geometry":{"type":"Point","coordinates":[-91.488151992999974,44.020317958000078]},"properties":{"OBJECTID":38,"Type":"Parking"}},{"type":"Feature","id":39,"geometry":{"type":"Point","coordinates":[-91.488081551999983,44.021197102000031]},"properties":{"OBJECTID":39,"Type":"Parking"}},{"type":"Feature","id":40,"geometry":{"type":"Point","coordinates":[-91.486211023999942,44.023591177000071]},"properties":{"OBJECTID":40,"Type":"Parking"}},{"type":"Feature","id":41,"geometry":{"type":"Point","coordinates":[-91.484463910999978,44.02599207600008]},"properties":{"OBJECTID":41,"Type":"Parking"}}]}